ONEWEB-0627             
1 55168U 23004AE  24068.24513137  .00000075  00000+0  15882-3 0  9998
2 55168  87.9263 171.1852 0002348 124.9736 235.1616 13.17650603 58151
ONEWEB-0628             
1 55169U 23004AF  24067.50260289 -.00000374  00000+0 -10745-2 0  9990
2 55169  87.9037 156.1553 0002495 112.5671 247.5721 13.12442172 58942
ONEWEB-0629             
1 55170U 23004AG  24068.24038535  .00000072  00000+0  15102-3 0  9997
2 55170  87.9259 171.1808 0002457 104.9060 255.2343 13.17651456 58156
ONEWEB-0631             
1 55171U 23004AH  24067.57043629  .00000027  00000+0  36735-4 0  9999
2 55171  87.9219 140.9333 0001642 124.6303 235.4984 13.18686268 60079
ONEWEB-0709             
1 55172U 23004AJ  24067.41572695 -.00000154  00000+0 -46895-3 0  9993
2 55172  87.9030 186.4764 0000862 137.5064 222.6131 13.11415158 56869
ONEWEB-0710             
1 55173U 23004AK  24068.23406182  .00000013  00000+0 -33089-7 0  9990
2 55173  87.9259 171.1930 0001752 113.9758 246.1557 13.17650318 58158
ONEWEB-0711             
1 55174U 23004AL  24067.61703863  .00000516  00000+0  14197-2 0  9999
2 55174  87.9031 186.4069 0002608 121.7682 238.3700 13.11416942 56847
ONEWEB-0713             
1 55175U 23004AM  24068.24526691  .00000510  00000+0  14024-2 0  9995
2 55175  87.9030 186.2905 0002159 112.9234 247.2122 13.11415156 56911
ONEWEB-0715             
1 55176U 23004AN  24068.24039932  .00000602  00000+0  16620-2 0  9999
2 55176  87.9033 186.2917 0002071 108.0805 252.0549 13.11415818 56968
ONEWEB-0716             
1 55177U 23004AP  24067.54430785  .00000104  00000+0  23356-3 0  9995
2 55177  87.9264 171.3187 0001901  97.7378 262.3970 13.17650944 58061
ONEWEB-0717             
1 55178U 23004AQ  24068.21033139  .00000088  00000+0  19413-3 0  9993
2 55178  87.9262 171.1533 0002405 131.4432 228.6907 13.17651420 58201
ONEWEB-0719             
1 55179U 23004AR  24068.22140736  .00000030  00000+0  44068-4 0  9999
2 55179  87.9261 171.1376 0002198 103.7179 256.4197 13.17650606 58154
ONEWEB-0530             
1 55796U 23029A   24067.50816787  .00000120  00000+0  26378-3 0  9990
2 55796  87.9127  79.9906 0002355 103.3697 256.7699 13.20772381 51365
ONEWEB-0534             
1 55797U 23029B   24067.57129306  .00000001  00000+0 -30527-4 0  9993
2 55797  87.9125  79.9849 0002113  86.3579 273.7796 13.20772443 51378
ONEWEB-0556             
1 55798U 23029C   24067.57761989  .00000036  00000+0  55479-4 0  9993
2 55798  87.9126  79.9774 0002902  88.5922 271.5543 13.20768790 51375
ONEWEB-0562             
1 55799U 23029D   24068.09529071 -.00000029  00000+0 -10449-3 0  9997
2 55799  87.9127  79.8638 0003038 102.1467 258.0007 13.20772007 52128
ONEWEB-0563             
1 55800U 23029E   24068.08897340  .00000028  00000+0  38097-4 0  9993
2 55800  87.9127  79.8803 0002311  88.1429 271.9969 13.20772505 52112
ONEWEB-0564             
1 55801U 23029F   24067.55235553  .00000076  00000+0  15463-3 0  9991
2 55801  87.9127  79.9716 0002147 102.3004 257.8369 13.20772722 51377
ONEWEB-0638             
1 55802U 23029G   24068.11074615 -.00000084  00000+0 -26137-3 0  9996
2 55802  87.8899  95.1621 0002547  82.6691 277.4728 13.14501675 50921
ONEWEB-0639             
1 55803U 23029H   24067.54914352  .00000069  00000+0  14103-3 0  9995
2 55803  87.9130 110.5213 0001896  50.7422 309.3879 13.19725730 49211
ONEWEB-0640             
1 55804U 23029J   24067.58743020 -.00000133  00000+0 -39218-3 0  9990
2 55804  87.8896  95.2647 0002609  77.6295 282.5126 13.14502088 50166
ONEWEB-0641             
1 55805U 23029K   24067.54440762  .00000063  00000+0  12416-3 0  9995
2 55805  87.9127 110.5074 0001812  87.8233 272.3107 13.19725823 49220
ONEWEB-0642             
1 55806U 23029L   24067.53967152  .00000063  00000+0  12530-3 0  9999
2 55806  87.9132 110.5268 0001477  60.7535 299.3746 13.19725804 49210
ONEWEB-0643             
1 55807U 23029M   24068.09011822 -.00000058  00000+0 -19005-3 0  9996
2 55807  87.8901  95.1398 0000946  78.9176 281.2060 13.14501130 50915
ONEWEB-0644             
1 55808U 23029N   24067.61074108  .00000154  00000+0  35143-3 0  9996
2 55808  87.9133 110.5063 0001599  78.7934 281.3378 13.19727563 49220
ONEWEB-0645             
1 55809U 23029P   24067.60681053  .00000040  00000+0  67247-4 0  9994
2 55809  87.9134 110.5099 0002063  77.8775 282.2589 13.19726832 49223
ONEWEB-0646             
1 55810U 23029Q   24067.56098651  .00000084  00000+0  17731-3 0  9997
2 55810  87.9130 110.5202 0001688  92.0404 268.0922 13.19725923 49208
ONEWEB-0648             
1 55811U 23029R   24068.05841014  .00000114  00000+0  27217-3 0  9996
2 55811  87.8898  95.1161 0001874  58.5699 301.5614 13.14501841 50918
ONEWEB-0649             
1 55812U 23029S   24068.13039632  .00000099  00000+0  21439-3 0  9993
2 55812  87.9128 110.4043 0001791  78.9390 281.1944 13.19721428 50007
ONEWEB-0650             
1 55813U 23029T   24067.59493889  .00000045  00000+0  78872-4 0  9996
2 55813  87.9132 110.5107 0001657  87.8805 272.2517 13.19726934 49211
ONEWEB-0652             
1 55814U 23029U   24067.58266999 -.00000230  00000+0 -65595-3 0  9991
2 55814  87.8898  95.2236 0002067  96.9788 263.1577 13.14502056 50117
ONEWEB-0653             
1 55815U 23029V   24067.56681600 -.00000341  00000+0 -95529-3 0  9993
2 55815  87.8901  95.2041 0002307  91.9124 268.2270 13.14502080 50149
ONEWEB-0654             
1 55816U 23029W   24068.09488055 -.00000265  00000+0 -74972-3 0  9996
2 55816  87.8900  95.1114 0002436 101.8213 258.3190 13.14502013 50925
ONEWEB-0656             
1 55817U 23029X   24068.07634636  .00000051  00000+0  94202-4 0  9993
2 55817  87.9127  79.8096 0002040 111.1686 248.9665 13.20772384 52128
ONEWEB-0657             
1 55818U 23029Y   24067.59020319  .00000072  00000+0  14825-3 0  9992
2 55818  87.9129 110.5168 0001719 125.6992 234.4301 13.19726483 49227
ONEWEB-0658             
1 55819U 23029Z   24067.58547983  .00000026  00000+0  32141-4 0  9994
2 55819  87.9131 110.4541 0001559  79.2697 280.8611 13.19725726 49232
ONEWEB-0660             
1 55820U 23029AA  24068.07268560  .00000062  00000+0  13275-3 0  9998
2 55820  87.8900  95.0915 0002184  78.6049 281.5326 13.14501899 50926
ONEWEB-0661             
1 55821U 23029AB  24067.57474802 -.00000139  00000+0 -41045-3 0  9994
2 55821  87.8898  95.2565 0002305  82.9418 277.1974 13.14501596 50136
ONEWEB-0662             
1 55822U 23029AC  24068.06635217  .00000326  00000+0  84602-3 0  9991
2 55822  87.8899  95.1663 0001977  79.4276 280.7076 13.14502496 50956
ONEWEB-0663             
1 55823U 23029AD  24067.53972948  .00000085  00000+0  17737-3 0  9995
2 55823  87.9127  79.9778 0002049  77.8663 282.2700 13.20773803 51368
ONEWEB-0664             
1 55824U 23029AE  24068.06372360 -.00000358  00000+0 -91368-3 0  9994
2 55824  87.9129  79.8854 0002334  93.9701 266.1699 13.20774319 52120
ONEWEB-0665             
1 55825U 23029AF  24068.10439313 -.00000214  00000+0 -61204-3 0  9999
2 55825  87.8899  95.1263 0002090  82.3212 277.8155 13.14501090 50915
ONEWEB-0666             
1 55826U 23029AG  24068.05741440  .00000121  00000+0  26501-3 0  9997
2 55826  87.9127  79.8779 0002014 103.7660 256.3697 13.20771551 52129
ONEWEB-0667             
1 55827U 23029AH  24068.05108159  .00000164  00000+0  37118-3 0  9995
2 55827  87.9126  79.8129 0002218  83.7343 276.4043 13.20772264 52118
ONEWEB-0669             
1 55828U 23029AJ  24068.04635376 -.00000088  00000+0 -24834-3 0  9999
2 55828  87.9126  79.8520 0002602 103.1239 257.0185 13.20771444 52113
ONEWEB-0670             
1 55829U 23029AK  24068.08221104  .00000177  00000+0  44208-3 0  9998
2 55829  87.8905  95.1329 0002432  83.1130 277.0276 13.14502581 50932
ONEWEB-0671             
1 55830U 23029AL  24068.11145099  .00000102  00000+0  22184-3 0  9999
2 55830  87.9129 110.4127 0002191  88.8465 271.2919 13.19727381 49979
ONEWEB-0672             
1 55831U 23029AM  24068.04162518  .00000119  00000+0  26066-3 0  9998
2 55831  87.9127  79.8362 0001926 101.6558 258.4792 13.20772094 52118
ONEWEB-0673             
1 55832U 23029AN  24067.55703856  .00000043  00000+0  75450-4 0  9998
2 55832  87.9129 110.4917 0002081  88.1419 271.9952 13.19726845 49213
ONEWEB-0674             
1 55833U 23029AP  24067.59378944  .00000212  00000+0  53644-3 0  9997
2 55833  87.8897  95.2409 0002529  87.0637 273.0782 13.14502103 50162
ONEWEB-0675             
1 55834U 23029AQ  24068.17937232  .00000029  00000+0  39655-4 0  9997
2 55834  87.9132 110.3961 0001596 103.7372 256.3938 13.19726522 50023
ONEWEB-0720             
1 55835U 23029AR  24067.56494226  .00000070  00000+0  14221-3 0  9998
2 55835  87.9131 110.5205 0001834  78.6915 281.4423 13.19725650 49155
ONEWEB-0537             
1 56046U 23043A   24067.40786554 -.00000170  00000+0 -47815-3 0  9998
2 56046  87.9088  34.3008 0001642  92.7245 267.4073 13.16594969 49514
ONEWEB-0538             
1 56047U 23043B   24067.40153950 -.00000128  00000+0 -36968-3 0  9997
2 56047  87.9090  34.3208 0001627  76.7897 283.3416 13.16594193 49526
ONEWEB-0546             
1 56048U 23043C   24067.38887957 -.00000047  00000+0 -15742-3 0  9993
2 56048  87.9096  34.2852 0001905 111.1935 248.9399 13.16593900 49514
ONEWEB-0547             
1 56049U 23043D   24067.49651045  .00000034  00000+0  50525-4 0  9996
2 56049  87.9234  49.5110 0001413  80.9550 279.1744 13.21826553 48355
ONEWEB-0548             
1 56050U 23043E   24067.41421275  .00000020  00000+0  18681-4 0  9992
2 56050  87.9090  34.3246 0002534  81.4246 278.7172 13.16594115 49511
ONEWEB-0549             
1 56051U 23043F   24068.24558463  .00000074  00000+0  14813-3 0  9996
2 56051  87.9238  49.3617 0001889  80.3728 279.7620 13.21826333 49367
ONEWEB-0550             
1 56052U 23043G   24068.23297485  .00000026  00000+0  31635-4 0  9999
2 56052  87.9233  49.3756 0002097  81.0472 279.0900 13.21826071 49366
